{
  "type": "FeatureCollection",
  "features": [
    {
      "type": "Feature",
      "properties": {
        "norad_id": 66732,
        "name": "FLOCK 4H-29",
        "group": "last-30-days",
        "lat": -37.3083676982992,
        "lon": -113.32386247651948,
        "alt_km": 518.6930832168491,
        "timestamp": "2025-12-26T21:25:51.733241+00:00",
        "meta_object_name": "FLOCK 4H-29",
        "meta_object_id": "2025-276BU",
        "meta_epoch": "2025-12-26T14:08:41.141184",
        "meta_mean_motion": 15.17472042,
        "meta_eccentricity": 0.0001851,
        "meta_inclination": 97.4362,
        "meta_ra_of_asc_node": 72.0901,
        "meta_arg_of_pericenter": 253.8548,
        "meta_mean_anomaly": 106.2482,
        "meta_ephemeris_type": 0,
        "meta_classification_type": "U",
        "meta_norad_cat_id": 66732,
        "meta_element_set_no": 999,
        "meta_rev_at_epoch": 422,
        "meta_bstar": 0.0051508408,
        "meta_mean_motion_dot": 0.00104497,
        "meta_mean_motion_ddot": 0,
        "tle_line1": "1 66732U 25276BU  25360.58936506  .00104497  00000+0  51508-2 0  9999",
        "tle_line2": "2 66732  97.4362  72.0901 0001851 253.8548 106.2482 15.17472042  4220"
      },
      "geometry": {
        "type": "Point",
        "coordinates": [
          -113.32386247651948,
          -37.3083676982992
        ]
      }
    },
    {
      "type": "Feature",
      "properties": {
        "norad_id": 66733,
        "name": "FLOCK 4H-30",
        "group": "last-30-days",
        "lat": -30.44998018147594,
        "lon": -111.99639894032394,
        "alt_km": 518.1797811531951,
        "timestamp": "2025-12-26T21:25:51.733253+00:00",
        "meta_object_name": "FLOCK 4H-30",
        "meta_object_id": "2025-276BV",
        "meta_epoch": "2025-12-26T14:10:27.313824",
        "meta_mean_motion": 15.17298103,
        "meta_eccentricity": 0.00032588,
        "meta_inclination": 97.4429,
        "meta_ra_of_asc_node": 72.1142,
        "meta_arg_of_pericenter": 245.0842,
        "meta_mean_anomaly": 115.0053,
        "meta_ephemeris_type": 0,
        "meta_classification_type": "U",
        "meta_norad_cat_id": 66733,
        "meta_element_set_no": 999,
        "meta_rev_at_epoch": 422,
        "meta_bstar": 0.00038552489,
        "meta_mean_motion_dot": 7.619e-05,
        "meta_mean_motion_ddot": 0,
        "tle_line1": "1 66733U 25276BV  25360.59059391  .00007619  00000+0  38552-3 0  9992",
        "tle_line2": "2 66733  97.4429  72.1142 0003258 245.0842 115.0053 15.17298103  4222"
      },
      "geometry": {
        "type": "Point",
        "coordinates": [
          -111.99639894032394,
          -30.44998018147594
        ]
      }
    },
    {
      "type": "Feature",
      "properties": {
        "norad_id": 66734,
        "name": "FLOCK 4H-31",
        "group": "last-30-days",
        "lat": -30.033323791776418,
        "lon": -111.94379005820228,
        "alt_km": 516.59554478258,
        "timestamp": "2025-12-26T21:25:51.733263+00:00",
        "meta_object_name": "FLOCK 4H-31",
        "meta_object_id": "2025-276BW",
        "meta_epoch": "2025-12-26T14:10:28.536384",
        "meta_mean_motion": 15.17035731,
        "meta_eccentricity": 0.00066594,
        "meta_inclination": 97.4366,
        "meta_ra_of_asc_node": 72.0903,
        "meta_arg_of_pericenter": 220.9149,
        "meta_mean_anomaly": 139.1586,
        "meta_ephemeris_type": 0,
        "meta_classification_type": "U",
        "meta_norad_cat_id": 66734,
        "meta_element_set_no": 999,
        "meta_rev_at_epoch": 422,
        "meta_bstar": -0.0076055856,
        "meta_mean_motion_dot": -0.00147489,
        "meta_mean_motion_ddot": 0,
        "tle_line1": "1 66734U 25276BW  25360.59060806 -.00147489  00000+0 -76056-2 0  9998",
        "tle_line2": "2 66734  97.4366  72.0903 0006659 220.9149 139.1586 15.17035731  4221"
      },
      "geometry": {
        "type": "Point",
        "coordinates": [
          -111.94379005820228,
          -30.033323791776418
        ]
      }
    },
    {
      "type": "Feature",
      "properties": {
        "norad_id": 66735,
        "name": "FLOCK 4H-32",
        "group": "last-30-days",
        "lat": -28.509722848307987,
        "lon": -111.66465559702488,
        "alt_km": 517.8771686854534,
        "timestamp": "2025-12-26T21:25:51.733273+00:00",
        "meta_object_name": "FLOCK 4H-32",
        "meta_object_id": "2025-276BX",
        "meta_epoch": "2025-12-26T14:10:57.949536",
        "meta_mean_motion": 15.17274605,
        "meta_eccentricity": 0.00035953,
        "meta_inclination": 97.4421,
        "meta_ra_of_asc_node": 72.1102,
        "meta_arg_of_pericenter": 240.8543,
        "meta_mean_anomaly": 119.2331,
        "meta_ephemeris_type": 0,
        "meta_classification_type": "U",
        "meta_norad_cat_id": 66735,
        "meta_element_set_no": 999,
        "meta_rev_at_epoch": 422,
        "meta_bstar": 0.00037051002,
        "meta_mean_motion_dot": 7.315e-05,
        "meta_mean_motion_ddot": 0,
        "tle_line1": "1 66735U 25276BX  25360.59094849  .00007315  00000+0  37051-3 0  9997",
        "tle_line2": "2 66735  97.4421  72.1102 0003595 240.8543 119.2331 15.17274605  4223"
      },
      "geometry": {
        "type": "Point",
        "coordinates": [
          -111.66465559702488,
          -28.509722848307987
        ]
      }
    },
    {
      "type": "Feature",
      "properties": {
        "norad_id": 66736,
        "name": "FLOCK 4H-33",
        "group": "last-30-days",
        "lat": -44.68288952606264,
        "lon": 79.87924209192605,
        "alt_km": 519.4804784770822,
        "timestamp": "2025-12-26T21:25:51.733283+00:00",
        "meta_object_name": "FLOCK 4H-33",
        "meta_object_id": "2025-276BY",
        "meta_epoch": "2025-12-26T13:43:16.940640",
        "meta_mean_motion": 15.18348619,
        "meta_eccentricity": 0.00028471,
        "meta_inclination": 97.442,
        "meta_ra_of_asc_node": 72.1355,
        "meta_arg_of_pericenter": 150.4227,
        "meta_mean_anomaly": 209.7169,
        "meta_ephemeris_type": 0,
        "meta_classification_type": "U",
        "meta_norad_cat_id": 66736,
        "meta_element_set_no": 999,
        "meta_rev_at_epoch": 422,
        "meta_bstar": 0.00057360525,
        "meta_mean_motion_dot": 0.00011723,
        "meta_mean_motion_ddot": 0,
        "tle_line1": "1 66736U 25276BY  25360.57172385  .00011723  00000+0  57361-3 0  9992",
        "tle_line2": "2 66736  97.4420  72.1355 0002847 150.4227 209.7169 15.18348619  4229"
      },
      "geometry": {
        "type": "Point",
        "coordinates": [
          79.87924209192605,
          -44.68288952606264
        ]
      }
    },
    {
      "type": "Feature",
      "properties": {
        "norad_id": 66737,
        "name": "FLOCK 4H-34",
        "group": "last-30-days",
        "lat": -55.69608277295435,
        "lon": 83.4995063319341,
        "alt_km": 519.9578684152948,
        "timestamp": "2025-12-26T21:25:51.733293+00:00",
        "meta_object_name": "FLOCK 4H-34",
        "meta_object_id": "2025-276BZ",
        "meta_epoch": "2025-12-26T13:46:12.447552",
        "meta_mean_motion": 15.18194869,
        "meta_eccentricity": 0.00027681,
        "meta_inclination": 97.4432,
        "meta_ra_of_asc_node": 72.138,
        "meta_arg_of_pericenter": 158.6878,
        "meta_mean_anomaly": 201.4471,
        "meta_ephemeris_type": 0,
        "meta_classification_type": "U",
        "meta_norad_cat_id": 66737,
        "meta_element_set_no": 999,
        "meta_rev_at_epoch": 347,
        "meta_bstar": 0.00032612626,
        "meta_mean_motion_dot": 6.603e-05,
        "meta_mean_motion_ddot": 0,
        "tle_line1": "1 66737U 25276BZ  25360.57375518  .00006603  00000+0  32613-3 0  9990",
        "tle_line2": "2 66737  97.4432  72.1380 0002768 158.6878 201.4471 15.18194869  3472"
      },
      "geometry": {
        "type": "Point",
        "coordinates": [
          83.4995063319341,
          -55.69608277295435
        ]
      }
    },
    {
      "type": "Feature",
      "properties": {
        "norad_id": 66738,
        "name": "FLOCK 4H-35",
        "group": "last-30-days",
        "lat": -45.652037252883275,
        "lon": 80.12376573034928,
        "alt_km": 519.6348901927804,
        "timestamp": "2025-12-26T21:25:51.733303+00:00",
        "meta_object_name": "FLOCK 4H-35",
        "meta_object_id": "2025-276CA",
        "meta_epoch": "2025-12-26T10:33:43.029504",
        "meta_mean_motion": 15.18290649,
        "meta_eccentricity": 0.00026953,
        "meta_inclination": 97.4396,
        "meta_ra_of_asc_node": 71.9961,
        "meta_arg_of_pericenter": 141.5195,
        "meta_mean_anomaly": 218.6232,
        "meta_ephemeris_type": 0,
        "meta_classification_type": "U",
        "meta_norad_cat_id": 66738,
        "meta_element_set_no": 999,
        "meta_rev_at_epoch": 349,
        "meta_bstar": 0.00046478847,
        "meta_mean_motion_dot": 9.468e-05,
        "meta_mean_motion_ddot": 0,
        "tle_line1": "1 66738U 25276CA  25360.44008136  .00009468  00000+0  46479-3 0  9993",
        "tle_line2": "2 66738  97.4396  71.9961 0002695 141.5195 218.6232 15.18290649  3496"
      },
      "geometry": {
        "type": "Point",
        "coordinates": [
          80.12376573034928,
          -45.652037252883275
        ]
      }
    }
  ]
}